{"epoch":1784902576,"count":18312,"objects":[{"id":"25118","name":"ORBCOMM FM 6","type":"PAYLOAD","l1":"1 25118U 97084G   26205.12494626  .00000904  00000-0  28216-3 0  9999","l2":"2 25118  45.0121 234.8814 0001944 260.8858 118.9404 14.47640764499740"},{"id":"25159","name":"ORBCOMM FM 4","type":"PAYLOAD","l1":"1 25159U 98007C   26205.04223380  .00000629  00000-0  26068-3 0  9995","l2":"2 25159 107.9632 245.2760 0042062 261.8830  97.7537 14.35795305481889"},{"id":"25415","name":"ORBCOMM FM 19","type":"PAYLOAD","l1":"1 25415U 98046C   26205.01797476  .00000849  00000-0  31469-3 0  9997","l2":"2 25415  44.9941  68.4816 0003411 120.9906  21.5572 14.39554755462089"},{"id":"25416","name":"ORBCOMM FM 20","type":"PAYLOAD","l1":"1 25416U 98046D   26205.04010660  .00000601  00000-0  24307-3 0  9993","l2":"2 25416  44.9942  76.7073 0000833  73.1100 286.9840 14.38110501462090"},{"id":"25481","name":"ORBCOMM FM 27","type":"PAYLOAD","l1":"1 25481U 98053G   26205.25620497  .00000882  00000-0  32774-3 0  9999","l2":"2 25481  45.0042 159.2780 0001905 326.3342  33.7385 14.39198338455571"},{"id":"25982","name":"ORBCOMM FM 32","type":"PAYLOAD","l1":"1 25982U 99065C   26204.43799661  .00000469  00000-0  20343-3 0  9998","l2":"2 25982  45.0169   1.6441 0006398 230.0106 130.0180 14.37175804392307"},{"id":"40086","name":"ORBCOMM FM 109","type":"PAYLOAD","l1":"1 40086U 14040A   26205.21809711  .00000156  00000-0  69147-4 0  9994","l2":"2 40086  47.0029 276.4045 0001002 353.1321   6.9551 14.58876140639751"},{"id":"41182","name":"ORBCOMM FM 110","type":"PAYLOAD","l1":"1 41182U 15081D   26205.29107149  .00000841  00000-0  21382-3 0  9991","l2":"2 41182  47.0005 185.9975 0003834 257.6872 102.3585 14.58930930563047"},{"id":"41183","name":"ORBCOMM FM 118","type":"PAYLOAD","l1":"1 41183U 15081E   26205.25711005  .00000698  00000-0  18377-3 0  9990","l2":"2 41183  47.0027 186.4990 0003335 223.5804 136.4818 14.58914618563141"},{"id":"41184","name":"ORBCOMM FM 112","type":"PAYLOAD","l1":"1 41184U 15081F   26205.05545425  .00000631  00000-0  16944-3 0  9995","l2":"2 41184  46.9990  95.8996 0003140   8.2762 351.8175 14.58949187564333"},{"id":"41185","name":"ORBCOMM FM 113","type":"PAYLOAD","l1":"1 41185U 15081G   26205.10188823  .00000393  00000-0  11929-3 0  9990","l2":"2 41185  47.0008  96.0762 0001691 358.5656   1.5225 14.58889513564322"},{"id":"41187","name":"ORBCOMM FM 108","type":"PAYLOAD","l1":"1 41187U 15081J   26204.85825700  .00000547  00000-0  15167-3 0  9994","l2":"2 41187  47.0062   8.8101 0002077 357.0507   3.0366 14.58919595565430"},{"id":"41188","name":"ORBCOMM FM 117","type":"PAYLOAD","l1":"1 41188U 15081K   26204.89255206  .00000542  00000-0  15079-3 0  9994","l2":"2 41188  47.0024   7.2730 0002462   6.1000 353.9915 14.58906620565485"},{"id":"41189","name":"ORBCOMM FM 116","type":"PAYLOAD","l1":"1 41189U 15081L   26205.14656928  .00000585  00000-0  15988-3 0  9996","l2":"2 41189  47.0023  95.8617 0001758 252.6519 107.4175 14.58916514564338"}]}